{
  "type": "FeatureCollection",
  "features": [
    {
      "type": "Feature",
      "properties": {
        "norad_id": 37295,
        "name": "COSMOS 2251 DEB",
        "group": "cosmos-2251-debris",
        "lat": 39.5749339295686,
        "lon": 60.24582202111088,
        "alt_km": 661.6617799809928,
        "timestamp": "2025-12-27T02:10:16.586596+00:00",
        "meta_object_name": "COSMOS 2251 DEB",
        "meta_object_id": "1993-036BJK",
        "meta_epoch": "2025-12-25T16:46:30.932832",
        "meta_mean_motion": 14.65312772,
        "meta_eccentricity": 0.00441488,
        "meta_inclination": 74.006,
        "meta_ra_of_asc_node": 256.6411,
        "meta_arg_of_pericenter": 71.87,
        "meta_mean_anomaly": 288.7269,
        "meta_ephemeris_type": 0,
        "meta_classification_type": "U",
        "meta_norad_cat_id": 37295,
        "meta_element_set_no": 999,
        "meta_rev_at_epoch": 82494,
        "meta_bstar": 0.00055089823,
        "meta_mean_motion_dot": 2.985e-05,
        "meta_mean_motion_ddot": 0,
        "tle_line1": "1 37295U 93036BJK 25359.69896913  .00002985  00000+0  55090-3 0  9997",
        "tle_line2": "2 37295  74.0060 256.6411 0044148  71.8700 288.7269 14.65312772824941"
      },
      "geometry": {
        "type": "Point",
        "coordinates": [
          60.24582202111088,
          39.5749339295686
        ]
      }
    },
    {
      "type": "Feature",
      "properties": {
        "norad_id": 37305,
        "name": "COSMOS 2251 DEB",
        "group": "cosmos-2251-debris",
        "lat": -35.48902614593915,
        "lon": 95.80578069990976,
        "alt_km": 741.7105931913375,
        "timestamp": "2025-12-27T02:10:16.586607+00:00",
        "meta_object_name": "COSMOS 2251 DEB",
        "meta_object_id": "1993-036BJV",
        "meta_epoch": "2025-12-23T00:11:55.974336",
        "meta_mean_motion": 14.36169187,
        "meta_eccentricity": 0.00495961,
        "meta_inclination": 73.8701,
        "meta_ra_of_asc_node": 271.4675,
        "meta_arg_of_pericenter": 230.2466,
        "meta_mean_anomaly": 129.4312,
        "meta_ephemeris_type": 0,
        "meta_classification_type": "U",
        "meta_norad_cat_id": 37305,
        "meta_element_set_no": 999,
        "meta_rev_at_epoch": 67014,
        "meta_bstar": 0.00056579218,
        "meta_mean_motion_dot": 1.645e-05,
        "meta_mean_motion_ddot": 0,
        "tle_line1": "1 37305U 93036BJV 25357.00828674  .00001645  00000+0  56579-3 0  9996",
        "tle_line2": "2 37305  73.8701 271.4675 0049596 230.2466 129.4312 14.36169187670140"
      },
      "geometry": {
        "type": "Point",
        "coordinates": [
          95.80578069990976,
          -35.48902614593915
        ]
      }
    },
    {
      "type": "Feature",
      "properties": {
        "norad_id": 37312,
        "name": "COSMOS 2251 DEB",
        "group": "cosmos-2251-debris",
        "lat": 51.84507532508856,
        "lon": -161.2304571373026,
        "alt_km": 742.3820015660904,
        "timestamp": "2025-12-27T02:10:16.586617+00:00",
        "meta_object_name": "COSMOS 2251 DEB",
        "meta_object_id": "1993-036BKC",
        "meta_epoch": "2025-12-26T04:20:06.486432",
        "meta_mean_motion": 14.46165995,
        "meta_eccentricity": 0.00184518,
        "meta_inclination": 74.0294,
        "meta_ra_of_asc_node": 179.0901,
        "meta_arg_of_pericenter": 281.316,
        "meta_mean_anomaly": 78.5925,
        "meta_ephemeris_type": 0,
        "meta_classification_type": "U",
        "meta_norad_cat_id": 37312,
        "meta_element_set_no": 999,
        "meta_rev_at_epoch": 86358,
        "meta_bstar": 0.00042518339,
        "meta_mean_motion_dot": 1.496e-05,
        "meta_mean_motion_ddot": 0,
        "tle_line1": "1 37312U 93036BKC 25360.18063063  .00001496  00000+0  42518-3 0  9992",
        "tle_line2": "2 37312  74.0294 179.0901 0018451 281.3160  78.5925 14.46165995863587"
      },
      "geometry": {
        "type": "Point",
        "coordinates": [
          -161.2304571373026,
          51.84507532508856
        ]
      }
    },
    {
      "type": "Feature",
      "properties": {
        "norad_id": 37316,
        "name": "COSMOS 2251 DEB",
        "group": "cosmos-2251-debris",
        "lat": -59.61024599578656,
        "lon": -158.6392892413481,
        "alt_km": 609.2133502800425,
        "timestamp": "2025-12-27T02:10:16.586627+00:00",
        "meta_object_name": "COSMOS 2251 DEB",
        "meta_object_id": "1993-036BKG",
        "meta_epoch": "2025-12-26T17:03:21.302208",
        "meta_mean_motion": 14.95099635,
        "meta_eccentricity": 0.0029677,
        "meta_inclination": 74.0192,
        "meta_ra_of_asc_node": 352.8746,
        "meta_arg_of_pericenter": 56.1094,
        "meta_mean_anomaly": 304.2907,
        "meta_ephemeris_type": 0,
        "meta_classification_type": "U",
        "meta_norad_cat_id": 37316,
        "meta_element_set_no": 999,
        "meta_rev_at_epoch": 86352,
        "meta_bstar": 0.0023915,
        "meta_mean_motion_dot": 0.00026514,
        "meta_mean_motion_ddot": 0,
        "tle_line1": "1 37316U 93036BKG 25360.71066322  .00026514  00000+0  23915-2 0  9993",
        "tle_line2": "2 37316  74.0192 352.8746 0029677  56.1094 304.2907 14.95099635863526"
      },
      "geometry": {
        "type": "Point",
        "coordinates": [
          -158.6392892413481,
          -59.61024599578656
        ]
      }
    },
    {
      "type": "Feature",
      "properties": {
        "norad_id": 37320,
        "name": "COSMOS 2251 DEB",
        "group": "cosmos-2251-debris",
        "lat": -72.86413652686373,
        "lon": 121.8521039758198,
        "alt_km": 606.7737519685206,
        "timestamp": "2025-12-27T02:10:16.586637+00:00",
        "meta_object_name": "COSMOS 2251 DEB",
        "meta_object_id": "1993-036BKL",
        "meta_epoch": "2025-12-22T20:16:00.405696",
        "meta_mean_motion": 14.78886663,
        "meta_eccentricity": 0.0046926,
        "meta_inclination": 74.0442,
        "meta_ra_of_asc_node": 198.3073,
        "meta_arg_of_pericenter": 283.335,
        "meta_mean_anomaly": 76.2596,
        "meta_ephemeris_type": 0,
        "meta_classification_type": "U",
        "meta_norad_cat_id": 37320,
        "meta_element_set_no": 999,
        "meta_rev_at_epoch": 66296,
        "meta_bstar": 0.000787018,
        "meta_mean_motion_dot": 5.877e-05,
        "meta_mean_motion_ddot": 0,
        "tle_line1": "1 37320U 93036BKL 25356.84444914  .00005877  00000+0  78702-3 0  9998",
        "tle_line2": "2 37320  74.0442 198.3073 0046926 283.3350  76.2596 14.78886663662961"
      },
      "geometry": {
        "type": "Point",
        "coordinates": [
          121.8521039758198,
          -72.86413652686373
        ]
      }
    },
    {
      "type": "Feature",
      "properties": {
        "norad_id": 37326,
        "name": "COSMOS 2251 DEB",
        "group": "cosmos-2251-debris",
        "lat": -46.10205256109559,
        "lon": -70.09307332824783,
        "alt_km": 713.960809098593,
        "timestamp": "2025-12-27T02:10:16.586647+00:00",
        "meta_object_name": "COSMOS 2251 DEB",
        "meta_object_id": "1993-036BKS",
        "meta_epoch": "2025-12-18T14:41:59.918784",
        "meta_mean_motion": 14.6160351,
        "meta_eccentricity": 0.00547059,
        "meta_inclination": 74.0257,
        "meta_ra_of_asc_node": 323.4491,
        "meta_arg_of_pericenter": 90.7075,
        "meta_mean_anomaly": 270.0361,
        "meta_ephemeris_type": 0,
        "meta_classification_type": "U",
        "meta_norad_cat_id": 37326,
        "meta_element_set_no": 999,
        "meta_rev_at_epoch": 85569,
        "meta_bstar": 0.00040097011,
        "meta_mean_motion_dot": 2.005e-05,
        "meta_mean_motion_ddot": 0,
        "tle_line1": "1 37326U 93036BKS 25352.61249906  .00002005  00000+0  40097-3 0  9995",
        "tle_line2": "2 37326  74.0257 323.4491 0054705  90.7075 270.0361 14.61603510855692"
      },
      "geometry": {
        "type": "Point",
        "coordinates": [
          -70.09307332824783,
          -46.10205256109559
        ]
      }
    },
    {
      "type": "Feature",
      "properties": {
        "norad_id": 37330,
        "name": "COSMOS 2251 DEB",
        "group": "cosmos-2251-debris",
        "lat": -22.750186275745335,
        "lon": 94.59626649395655,
        "alt_km": 700.3796808213028,
        "timestamp": "2025-12-27T02:10:16.586657+00:00",
        "meta_object_name": "COSMOS 2251 DEB",
        "meta_object_id": "1993-036BKW",
        "meta_epoch": "2025-12-24T00:52:02.666208",
        "meta_mean_motion": 14.59569552,
        "meta_eccentricity": 0.00567424,
        "meta_inclination": 74.0177,
        "meta_ra_of_asc_node": 273.5222,
        "meta_arg_of_pericenter": 118.7622,
        "meta_mean_anomaly": 241.926,
        "meta_ephemeris_type": 0,
        "meta_classification_type": "U",
        "meta_norad_cat_id": 37330,
        "meta_element_set_no": 999,
        "meta_rev_at_epoch": 86533,
        "meta_bstar": 0.00027721204,
        "meta_mean_motion_dot": 1.317e-05,
        "meta_mean_motion_ddot": 0,
        "tle_line1": "1 37330U 93036BKW 25358.03614197  .00001317  00000+0  27721-3 0  9994",
        "tle_line2": "2 37330  74.0177 273.5222 0056742 118.7622 241.9260 14.59569552865338"
      },
      "geometry": {
        "type": "Point",
        "coordinates": [
          94.59626649395655,
          -22.750186275745335
        ]
      }
    }
  ]
}